{
    "links": {
        "self": "http://www.neowsapp.com/rest/v1/neo/3479124?api_key=iIulBulltgU6a56xZRHN4H3l9WmuAYTsLGpBGhQ2"
    },
    "id": "3479124",
    "neo_reference_id": "3479124",
    "name": "(2009 WK106)",
    "designation": "2009 WK106",
    "nasa_jpl_url": "http://ssd.jpl.nasa.gov/sbdb.cgi?sstr=3479124",
    "absolute_magnitude_h": 22.3,
    "estimated_diameter": {
        "kilometers": {
            "estimated_diameter_min": 0.0921626549,
            "estimated_diameter_max": 0.2060819612
        },
        "meters": {
            "estimated_diameter_min": 92.1626548503,
            "estimated_diameter_max": 206.0819612321
        },
        "miles": {
            "estimated_diameter_min": 0.057267201,
            "estimated_diameter_max": 0.1280533543
        },
        "feet": {
            "estimated_diameter_min": 302.370924539,
            "estimated_diameter_max": 676.1219416887
        }
    },
    "is_potentially_hazardous_asteroid": false,
    "close_approach_data": [
        {
            "close_approach_date": "2009-07-16",
            "close_approach_date_full": "2009-Jul-16 07:48",
            "epoch_date_close_approach": 1247730480000,
            "relative_velocity": {
                "kilometers_per_second": "13.8775426465",
                "kilometers_per_hour": "49959.1535274457",
                "miles_per_hour": "31042.6751459843"
            },
            "miss_distance": {
                "astronomical": "0.4394263446",
                "lunar": "170.9368480494",
                "kilometers": "65737245.174046002",
                "miles": "40847230.0399267476"
            },
            "orbiting_body": "Earth"
        },
        {
            "close_approach_date": "2009-11-13",
            "close_approach_date_full": "2009-Nov-13 11:40",
            "epoch_date_close_approach": 1258112400000,
            "relative_velocity": {
                "kilometers_per_second": "13.1810788446",
                "kilometers_per_hour": "47451.8838406882",
                "miles_per_hour": "29484.7552675654"
            },
            "miss_distance": {
                "astronomical": "0.3037343695",
                "lunar": "118.1526697355",
                "kilometers": "45438014.722992965",
                "miles": "28233873.126774317"
            },
            "orbiting_body": "Earth"
        }
    ],
    "orbital_data": {
        "orbit_id": "6",
        "orbit_determination_date": "2017-04-06 08:58:51",
        "first_observation_date": "2009-11-26",
        "last_observation_date": "2009-11-27",
        "data_arc_in_days": 1,
        "observations_used": 21,
        "orbit_uncertainty": "9",
        "minimum_orbit_intersection": ".274002",
        "jupiter_tisserand_invariant": "3.884",
        "epoch_osculation": "2455162.5",
        "eccentricity": ".3980441316274207",
        "semi_major_axis": "1.79205496926182",
        "inclination": "24.42855791598361",
        "ascending_node_longitude": "70.16434668075779",
        "orbital_period": "876.2447267715535",
        "perihelion_distance": "1.078738005193395",
        "perihelion_argument": "287.190762680017",
        "aphelion_distance": "2.505371933330246",
        "perihelion_time": "2455086.977667469974",
        "mean_anomaly": "31.02790679378043",
        "mean_motion": ".4108441272181897",
        "equinox": "J2000",
        "orbit_class": {
            "orbit_class_type": "AMO",
            "orbit_class_description": "Near-Earth asteroid orbits similar to that of 1221 Amor",
            "orbit_class_range": "1.017 AU < q (perihelion) < 1.3 AU"
        }
    },
    "is_sentry_object": false
}